{
  "norad_id": 68414,
  "name": "XINZHENGCHENG 01",
  "history": [
    {
      "epoch": "2026-04-30T15:02:57.912288Z",
      "apogee_km": 621.9987722898859,
      "perigee_km": 582.9837616805753,
      "latitude_deg": 7.864182604112965e-06,
      "longitude_deg": 173.68050582794206,
      "height_km": 596.4616859783447,
      "semi_major_axis_km": 6980.628266985231,
      "eccentricity": 0.00279452,
      "inclination_deg": 84.9643,
      "raan_deg": 257.9929,
      "arg_perigee_deg": 62.3531,
      "mean_anomaly_deg": 298.0524,
      "mean_motion_rev_day": 14.88541663
    }
  ]
}